ONEWEB-0092             
1 45437U 20020P   26062.50026043 -.00000508  00000+0 -14682-2 0  9990
2 45437  87.8854  42.0778 0001897  73.7816 286.3521 13.11416365288938
ONEWEB-0085             
1 45438U 20020Q   26062.46042103  .00000493  00000+0  13540-2 0  9994
2 45438  87.8851  42.0900 0001849  82.0718 278.0620 13.11416624288817
ONEWEB-0096             
1 45439U 20020R   26062.46211711  .00000505  00000+0  13893-2 0  9993
2 45439  87.8859  42.0776 0001791  82.4793 277.6538 13.11416058288803
ONEWEB-0037             
1 45440U 20020S   26062.44261198 -.00000209  00000+0 -62690-3 0  9990
2 45440  87.8866  42.0570 0001896  81.3820 278.7523 13.11417859288839
ONEWEB-0042             
1 45441U 20020T   26062.45179730  .00000211  00000+0  55990-3 0  9998
2 45441  87.8857  42.0772 0001750  81.9454 278.1873 13.11417795288800
ONEWEB-0098             
1 45442U 20020U   26062.44769763  .00000033  00000+0  56822-4 0  9997
2 45442  87.8855  42.0895 0001900  85.8233 274.3112 13.11417528288785
ONEWEB-0055             
1 45443U 20020V   26062.43074345 -.00000509  00000+0 -14720-2 0  9991
2 45443  87.8855  42.0933 0001899  86.4466 273.6879 13.11417004288759
ONEWEB-0093             
1 45444U 20020W   26062.48259589  .00000169  00000+0  44229-3 0  9990
2 45444  87.8857  42.0724 0001441  78.5942 281.5348 13.11414232288821
ONEWEB-0029             
1 45445U 20020X   26062.42226263 -.00000463  00000+0 -13429-2 0  9994
2 45445  87.8854  42.0959 0001689  86.0467 274.0854 13.11415249288793
ONEWEB-0068             
1 45446U 20020Y   26062.48231864  .00000159  00000+0  41249-3 0  9996
2 45446  87.8859  42.0747 0001652  86.0998 274.0319 13.11414519288743
ONEWEB-0046             
1 45447U 20020Z   26062.47398093  .00000434  00000+0  11895-2 0  9993
2 45447  87.8859  42.0831 0001725  77.2311 282.9009 13.11414405288759
ONEWEB-0063             
1 45448U 20020AA  26062.42649617 -.00000499  00000+0 -14431-2 0  9992
2 45448  87.8859  42.0901 0001867  77.0316 283.1021 13.11416001288838
ONEWEB-0019             
1 45449U 20020AB  26062.46536499  .00000557  00000+0  15365-2 0  9990
2 45449  87.8846  42.0770 0001976  88.0894 272.0460 13.11415659288688
ONEWEB-0094             
1 45450U 20020AC  26062.42383655  .00000012  00000+0 -23100-5 0  9998
2 45450  87.9148  26.8414 0001751  87.5024 272.6308 13.17652096292384
ONEWEB-0087             
1 45451U 20020AD  26062.43653180 -.00000374  00000+0 -10925-2 0  9993
2 45451  87.8864  42.0545 0001573  87.6583 272.4726 13.11416941288723
ONEWEB-0082             
1 45452U 20020AE  26062.43327701 -.00000435  00000+0 -12622-2 0  9995
2 45452  87.8862  42.0794 0001636  88.3641 271.7675 13.11417028288813
ONEWEB-0050             
1 45453U 20020AF  26062.51230455  .00002558  00000+0  26338-3 0  9990
2 45453  88.9192 247.6008 0003973  34.0635 326.0848 14.89974337324645
